NORAD_CAT_ID,OBJECT_NAME,OBJECT_TYPE,EPOCH,MEAN_MOTION,ECCENTRICITY,INCLINATION,RA_OF_ASC_NODE,ARG_OF_PERICENTER,MEAN_ANOMALY,BSTAR,MEAN_MOTION_DOT,MEAN_MOTION_DDOT,TLE_LINE0,TLE_LINE1,TLE_LINE2,SEMIMAJOR_AXIS,PERIOD,APOGEE,PERIGEE,DECAYED
53035.0,STARLINK-4157,PAYLOAD,2024-04-17 19:11:53,15.08836192,0.0001332,53.2162,295.6406,111.9547,248.1587,-3.9367e-05,-9.14e-06,0.0,0 STARLINK-4157,1 53035U 22076BB  24108.79991974 -.00000914  00000-0 -39367-4 0  9991,2 53035  53.2162 295.6406 0001332 111.9547 248.1587 15.08836192 99282,6917.892,95.438,540.678,538.836,0.0
53035.0,STARLINK-4157,PAYLOAD,2024-04-18 19:02:40,15.08844254,0.0001397,53.217,291.1842,116.934,243.1795,7.6832e-05,9.35e-06,0.0,0 STARLINK-4157,1 53035U 22076BB  24109.79351958  .00000935  00000-0  76832-4 0  9993,2 53035  53.2170 291.1842 0001397 116.9340 243.1795 15.08844254 98972,6917.867,95.437,540.699,538.766,0.0
53035.0,STARLINK-4157,PAYLOAD,2024-04-19 10:56:31,15.08843792,0.0001322,53.217,288.2108,106.0645,254.0493,0.00039056,5.934e-05,0.0,0 STARLINK-4157,1 53035U 22076BB  24110.45592303  .00005934  00000-0  39056-3 0  9999,2 53035  53.2170 288.2108 0001322 106.0645 254.0493 15.08843792 99074,6917.869,95.437,540.648,538.819,0.0
53035.0,STARLINK-4157,PAYLOAD,2024-04-19 17:18:04,15.08841274,0.0001378,53.2176,287.015,101.3319,258.7828,0.00030894,4.632e-05,0.0,0 STARLINK-4157,1 53035U 22076BB  24110.72088507  .00004632  00000-0  30894-3 0  9990,2 53035  53.2176 287.0150 0001378 101.3319 258.7828 15.08841274 99572,6917.876,95.437,540.695,538.788,0.0
53035.0,STARLINK-4157,PAYLOAD,2024-04-20 12:22:41,15.08850548,0.0001204,53.2167,283.4465,90.219,269.894,0.00014073,1.953e-05,0.0,0 STARLINK-4157,1 53035U 22076BB  24111.51575881  .00001953  00000-0  14073-3 0  9998,2 53035  53.2167 283.4465 0001204  90.2190 269.8940 15.08850548 99237,6917.848,95.437,540.546,538.88,0.0
53035.0,STARLINK-4157,PAYLOAD,2024-04-20 20:19:40,15.08784551,0.0001047,53.2172,281.967,101.4654,258.6456,-0.0008232,-0.00013345,0.0,0 STARLINK-4157,1 53035U 22076BB  24111.84699100 -.00013345  00000-0 -82320-3 0  9995,2 53035  53.2172 281.9670 0001047 101.4654 258.6456 15.08784551 99743,6918.05,95.441,540.639,539.191,0.0
53035.0,STARLINK-4157,PAYLOAD,2024-04-20 21:55:02,15.08782322,0.0001068,53.2171,281.6626,104.0072,256.1039,-0.001092,-0.00017597,0.0,0 STARLINK-4157,1 53035U 22076BB  24111.91322750 -.00017597  00000-0 -10920-2 0  9996,2 53035  53.2171 281.6626 0001068 104.0072 256.1039 15.08782322 99290,6918.057,95.441,540.661,539.183,0.0
53035.0,STARLINK-4157,PAYLOAD,2024-04-21 20:10:25,15.08862951,0.0001188,53.2174,277.5012,93.9499,266.1629,0.00071878,0.00011177,0.0,0 STARLINK-4157,1 53035U 22076BB  24112.84056888  .00011177  00000-0  71878-3 0  9991,2 53035  53.2174 277.5012 0001188  93.9499 266.1629 15.08862951 99897,6917.81,95.436,540.497,538.853,0.0
53035.0,STARLINK-4157,PAYLOAD,2024-04-22 10:28:54,15.08839657,0.0001068,53.217,274.8312,88.9704,271.1411,0.00081106,0.00012644,0.0,0 STARLINK-4157,1 53035U 22076BB  24113.43673720  .00012644  00000-0  81106-3 0  9992,2 53035  53.2170 274.8312 0001068  88.9704 271.1411 15.08839657 99988,6917.881,95.438,540.485,539.008,0.0
53035.0,STARLINK-4157,PAYLOAD,2024-04-22 18:25:49,15.08842671,0.0001035,53.2175,273.3414,94.0622,266.0488,0.00043811,6.692e-05,0.0,0 STARLINK-4157,1 53035U 22076BB  24113.76793517  .00006692  00000-0  43811-3 0  9992,2 53035  53.2175 273.3414 0001035  94.0622 266.0488 15.08842671 99573,6917.872,95.437,540.453,539.021,0.0
53035.0,STARLINK-4157,PAYLOAD,2024-04-23 19:51:59,15.08855576,0.0001855,53.218,268.5786,62.5054,297.6126,-8.1138e-06,-4.17e-06,0.0,0 STARLINK-4157,1 53035U 22076BB  24114.82776810 -.00000417  00000-0 -81138-5 0  9994,2 53035  53.2180 268.5786 0001855  62.5054 297.6126 15.08855576100194,6917.833,95.437,540.981,538.415,0.0
53035.0,STARLINK-4157,PAYLOAD,2024-04-24 13:21:14,15.08837138,0.0001045,53.2183,265.3145,75.7423,284.3686,8.6728e-05,1.093e-05,0.0,0 STARLINK-4157,1 53035U 22076BB  24115.55641550  .00001093  00000-0  86728-4 0  9995,2 53035  53.2183 265.3145 0001045  75.7423 284.3686 15.08837138100309,6917.889,95.438,540.477,539.031,0.0
53035.0,STARLINK-4157,PAYLOAD,2024-04-24 16:32:00,15.08840223,0.000124,53.2176,264.7178,106.136,253.9768,0.00011212,1.497e-05,0.0,0 STARLINK-4157,1 53035U 22076BB  24115.68889307  .00001497  00000-0  11212-3 0  9996,2 53035  53.2176 264.7178 0001240 106.1360 253.9768 15.08840223 99866,6917.88,95.438,540.603,538.887,0.0
53035.0,STARLINK-4157,PAYLOAD,2024-04-25 14:47:24,15.08828164,0.0001136,53.2174,260.5421,102.7765,257.3355,0.0003263,4.907e-05,0.0,0 STARLINK-4157,1 53035U 22076BB  24116.61625882  .00004907  00000-0  32630-3 0  9992,2 53035  53.2174 260.5421 0001136 102.7765 257.3355 15.08828164100003,6917.917,95.438,540.567,538.996,0.0
53035.0,STARLINK-4157,PAYLOAD,2024-04-25 16:22:47,15.08839032,0.0001177,53.2172,260.2441,87.9342,272.1784,-3.2367e-05,-8.03e-06,0.0,0 STARLINK-4157,1 53035U 22076BB  24116.68249448 -.00000803  00000-0 -32367-4 0  9990,2 53035  53.2172 260.2441 0001177  87.9342 272.1784 15.08839032100478,6917.883,95.438,540.563,538.934,0.0
53035.0,STARLINK-4157,PAYLOAD,2024-04-26 14:38:11,15.08837129,0.0001251,53.2181,256.0935,88.7531,271.3604,0.00010157,1.329e-05,0.0,0 STARLINK-4157,1 53035U 22076BB  24117.60985819  .00001329  00000-0  10157-3 0  9996,2 53035  53.2181 256.0935 0001251  88.7531 271.3604 15.08837129100153,6917.889,95.438,540.62,538.889,0.0
53035.0,STARLINK-4157,PAYLOAD,2024-04-26 16:13:34,15.08838172,0.0001279,53.2185,255.8014,96.2836,263.8302,0.00010524,1.387e-05,0.0,0 STARLINK-4157,1 53035U 22076BB  24117.67609779  .00001387  00000-0  10524-3 0  9993,2 53035  53.2185 255.8014 0001279  96.2836 263.8302 15.08838172100165,6917.886,95.438,540.636,538.866,0.0
53035.0,STARLINK-4157,PAYLOAD,2024-04-27 01:45:51,15.08859953,0.0001343,53.2191,254.0153,103.1417,256.9725,0.00028657,4.278e-05,0.0,0 STARLINK-4157,1 53035U 22076BB  24118.07351732  .00004278  00000-0  28657-3 0  9999,2 53035  53.2191 254.0153 0001343 103.1417 256.9725 15.08859953100681,6917.819,95.436,540.613,538.755,0.0
53035.0,STARLINK-4157,PAYLOAD,2024-04-27 12:53:36,15.08819157,0.0001396,53.2186,251.9347,103.0856,257.0292,-0.00021481,-3.703e-05,0.0,0 STARLINK-4157,1 53035U 22076BB  24118.53722677 -.00003703  00000-0 -21481-3 0  9992,2 53035  53.2186 251.9347 0001396 103.0856 257.0292 15.08819157100751,6917.944,95.439,540.775,538.843,0.0
53035.0,STARLINK-4157,PAYLOAD,2024-04-27 14:28:59,15.08820591,0.000139,53.2185,251.6374,102.9814,257.1333,-0.00021493,-3.705e-05,0.0,0 STARLINK-4157,1 53035U 22076BB  24118.60346619 -.00003705  00000-0 -21493-3 0  9993,2 53035  53.2185 251.6374 0001390 102.9814 257.1333 15.08820591100305,6917.94,95.439,540.766,538.843,0.0
53035.0,STARLINK-4157,PAYLOAD,2024-04-27 16:04:22,15.08822972,0.000135,53.2183,251.3414,108.0835,252.0304,-0.0001785,-3.126e-05,0.0,0 STARLINK-4157,1 53035U 22076BB  24118.66970566 -.00003126  00000-0 -17850-3 0  9992,2 53035  53.2183 251.3414 0001350 108.0835 252.0304 15.08822972100319,6917.932,95.439,540.731,538.864,0.0
53035.0,STARLINK-4157,PAYLOAD,2024-04-28 01:36:40,15.08842738,0.00012,53.2179,249.549,68.2473,291.8647,0.00011191,1.494e-05,0.0,0 STARLINK-4157,1 53035U 22076BB  24119.06713648  .00001494  00000-0  11191-3 0  9999,2 53035  53.2179 249.5490 0001200  68.2473 291.8647 15.08842738100836,6917.872,95.437,540.567,538.907,0.0
53035.0,STARLINK-4157,PAYLOAD,2024-04-28 12:44:23,15.08831098,0.0001892,53.2181,247.4733,86.7071,273.4137,-6.5635e-05,-1.332e-05,0.0,0 STARLINK-4157,1 53035U 22076BB  24119.53082617 -.00001332  00000-0 -65635-4 0  9992,2 53035  53.2181 247.4733 0001892  86.7071 273.4137 15.08831098100907,6917.908,95.438,541.081,538.464,0.0
53035.0,STARLINK-4157,PAYLOAD,2024-04-28 14:19:47,15.08827275,0.0001712,53.2203,247.1757,97.4656,262.653,-4.6052e-06,-3.61e-06,0.0,0 STARLINK-4157,1 53035U 22076BB  24119.59707305 -.00000361  00000-0 -46052-5 0  9990,2 53035  53.2203 247.1757 0001712  97.4656 262.6530 15.08827275100453,6917.919,95.438,540.969,538.6,0.0
53035.0,STARLINK-4157,PAYLOAD,2024-04-28 19:05:55,15.08843072,0.0001065,53.2176,246.2797,84.8927,275.2186,8.5103e-05,1.067e-05,0.0,0 STARLINK-4157,1 53035U 22076BB  24119.79577994  .00001067  00000-0  85103-4 0  9992,2 53035  53.2176 246.2797 0001065  84.8927 275.2186 15.08843072100942,6917.871,95.437,540.473,538.999,0.0
53035.0,STARLINK-4157,PAYLOAD,2024-04-29 12:35:10,15.08820723,0.0001089,53.2184,243.0115,101.8056,258.3058,0.00024572,3.623e-05,0.0,0 STARLINK-4157,1 53035U 22076BB  24120.52443260  .00003623  00000-0  24572-3 0  9995,2 53035  53.2184 243.0115 0001089 101.8056 258.3058 15.08820723101050,6917.939,95.439,540.558,539.051,0.0
53035.0,STARLINK-4157,PAYLOAD,2024-04-29 15:45:58,15.08810562,0.0001307,53.2173,242.4222,67.0173,293.0957,5.7878e-05,6.33e-06,0.0,0 STARLINK-4157,1 53035U 22076BB  24120.65692659  .00000633  00000-0  57878-4 0  9991,2 53035  53.2173 242.4222 0001307  67.0173 293.0957 15.08810562101072,6917.97,95.439,540.74,538.931,0.0
53035.0,STARLINK-4157,PAYLOAD,2024-04-30 01:18:15,15.08837078,8.79e-05,53.2193,240.6314,94.554,265.5552,3.4901e-05,2.68e-06,0.0,0 STARLINK-4157,1 53035U 22076BB  24121.05435079  .00000268  00000-0  34901-4 0  9993,2 53035  53.2193 240.6314 0000879  94.5540 265.5552 15.08837078101135,6917.889,95.438,540.362,539.146,0.0
53035.0,STARLINK-4157,PAYLOAD,2024-04-30 14:01:20,15.08843485,8.58e-05,53.2188,238.2555,81.5438,278.5652,0.00022897,3.359e-05,0.0,0 STARLINK-4157,1 53035U 22076BB  24121.58426298  .00003359  00000-0  22897-3 0  9998,2 53035  53.2188 238.2555 0000858  81.5438 278.5652 15.08843485101211,6917.87,95.437,540.328,539.141,0.0
53035.0,STARLINK-4157,PAYLOAD,2024-05-01 01:09:01,15.08848868,0.00013,53.2178,236.1765,66.1516,293.9612,0.00051688,7.95e-05,0.0,0 STARLINK-4157,1 53035U 22076BB  24122.04793262  .00007950  00000-0  51688-3 0  9999,2 53035  53.2178 236.1765 0001300  66.1516 293.9612 15.08848868101283,6917.853,95.437,540.618,538.819,0.0
